<?xml version="1.0" encoding="UTF-8"?>
<ndm xmlns:xsi="http://www.w3.org/2001/XMLSchema-instance" xsi:noNamespaceSchemaLocation="https://sanaregistry.org/r/ndmxml_unqualified/ndmxml-2.0.0-master-2.0.xsd">
<omm id="CCSDS_OMM_VERS" version="2.0">
<header><CREATION_DATE/><ORIGINATOR/></header><body><segment><metadata><OBJECT_NAME>ORBCOMM FM103</OBJECT_NAME><OBJECT_ID>2014-040F</OBJECT_ID><CENTER_NAME>EARTH</CENTER_NAME><REF_FRAME>TEME</REF_FRAME><TIME_SYSTEM>UTC</TIME_SYSTEM><MEAN_ELEMENT_THEORY>SGP4</MEAN_ELEMENT_THEORY></metadata><data><meanElements><EPOCH>2025-04-24T21:02:38.767776</EPOCH><MEAN_MOTION>14.58077710</MEAN_MOTION><ECCENTRICITY>.0001296</ECCENTRICITY><INCLINATION>47.0056</INCLINATION><RA_OF_ASC_NODE>269.5537</RA_OF_ASC_NODE><ARG_OF_PERICENTER>19.3496</ARG_OF_PERICENTER><MEAN_ANOMALY>340.7438</MEAN_ANOMALY></meanElements><tleParameters><EPHEMERIS_TYPE>0</EPHEMERIS_TYPE><CLASSIFICATION_TYPE>U</CLASSIFICATION_TYPE><NORAD_CAT_ID>40091</NORAD_CAT_ID><ELEMENT_SET_NO>999</ELEMENT_SET_NO><REV_AT_EPOCH>55632</REV_AT_EPOCH><BSTAR>.36867E-3</BSTAR><MEAN_MOTION_DOT>.1544E-4</MEAN_MOTION_DOT><MEAN_MOTION_DDOT>0</MEAN_MOTION_DDOT></tleParameters></data></segment></body></omm>
<omm id="CCSDS_OMM_VERS" version="2.0">
<header><CREATION_DATE/><ORIGINATOR/></header><body><segment><metadata><OBJECT_NAME>ORBCOMM FM114</OBJECT_NAME><OBJECT_ID>2015-081A</OBJECT_ID><CENTER_NAME>EARTH</CENTER_NAME><REF_FRAME>TEME</REF_FRAME><TIME_SYSTEM>UTC</TIME_SYSTEM><MEAN_ELEMENT_THEORY>SGP4</MEAN_ELEMENT_THEORY></metadata><data><meanElements><EPOCH>2025-04-24T13:22:32.805696</EPOCH><MEAN_MOTION>14.58132271</MEAN_MOTION><ECCENTRICITY>.0001074</ECCENTRICITY><INCLINATION>47.0013</INCLINATION><RA_OF_ASC_NODE>180.1384</RA_OF_ASC_NODE><ARG_OF_PERICENTER>122.7687</ARG_OF_PERICENTER><MEAN_ANOMALY>237.3302</MEAN_ANOMALY></meanElements><tleParameters><EPHEMERIS_TYPE>0</EPHEMERIS_TYPE><CLASSIFICATION_TYPE>U</CLASSIFICATION_TYPE><NORAD_CAT_ID>41179</NORAD_CAT_ID><ELEMENT_SET_NO>999</ELEMENT_SET_NO><REV_AT_EPOCH>49664</REV_AT_EPOCH><BSTAR>.28422E-3</BSTAR><MEAN_MOTION_DOT>.1152E-4</MEAN_MOTION_DOT><MEAN_MOTION_DDOT>0</MEAN_MOTION_DDOT></tleParameters></data></segment></body></omm>
<omm id="CCSDS_OMM_VERS" version="2.0">
<header><CREATION_DATE/><ORIGINATOR/></header><body><segment><metadata><OBJECT_NAME>ORBCOMM FM110</OBJECT_NAME><OBJECT_ID>2015-081D</OBJECT_ID><CENTER_NAME>EARTH</CENTER_NAME><REF_FRAME>TEME</REF_FRAME><TIME_SYSTEM>UTC</TIME_SYSTEM><MEAN_ELEMENT_THEORY>SGP4</MEAN_ELEMENT_THEORY></metadata><data><meanElements><EPOCH>2025-04-24T12:50:13.536960</EPOCH><MEAN_MOTION>14.58001271</MEAN_MOTION><ECCENTRICITY>.0002958</ECCENTRICITY><INCLINATION>47.0008</INCLINATION><RA_OF_ASC_NODE>179.6314</RA_OF_ASC_NODE><ARG_OF_PERICENTER>275.8519</ARG_OF_PERICENTER><MEAN_ANOMALY>84.2029</MEAN_ANOMALY></meanElements><tleParameters><EPHEMERIS_TYPE>0</EPHEMERIS_TYPE><CLASSIFICATION_TYPE>U</CLASSIFICATION_TYPE><NORAD_CAT_ID>41182</NORAD_CAT_ID><ELEMENT_SET_NO>999</ELEMENT_SET_NO><REV_AT_EPOCH>49669</REV_AT_EPOCH><BSTAR>.36921E-3</BSTAR><MEAN_MOTION_DOT>.1543E-4</MEAN_MOTION_DOT><MEAN_MOTION_DDOT>0</MEAN_MOTION_DDOT></tleParameters></data></segment></body></omm>
<omm id="CCSDS_OMM_VERS" version="2.0">
<header><CREATION_DATE/><ORIGINATOR/></header><body><segment><metadata><OBJECT_NAME>ORBCOMM FM118</OBJECT_NAME><OBJECT_ID>2015-081E</OBJECT_ID><CENTER_NAME>EARTH</CENTER_NAME><REF_FRAME>TEME</REF_FRAME><TIME_SYSTEM>UTC</TIME_SYSTEM><MEAN_ELEMENT_THEORY>SGP4</MEAN_ELEMENT_THEORY></metadata><data><meanElements><EPOCH>2025-04-22T16:03:15.754176</EPOCH><MEAN_MOTION>14.58093838</MEAN_MOTION><ECCENTRICITY>.0003525</ECCENTRICITY><INCLINATION>47.0037</INCLINATION><RA_OF_ASC_NODE>188.8961</RA_OF_ASC_NODE><ARG_OF_PERICENTER>249.1284</ARG_OF_PERICENTER><MEAN_ANOMALY>110.9224</MEAN_ANOMALY></meanElements><tleParameters><EPHEMERIS_TYPE>0</EPHEMERIS_TYPE><CLASSIFICATION_TYPE>U</CLASSIFICATION_TYPE><NORAD_CAT_ID>41183</NORAD_CAT_ID><ELEMENT_SET_NO>999</ELEMENT_SET_NO><REV_AT_EPOCH>49634</REV_AT_EPOCH><BSTAR>.36211E-3</BSTAR><MEAN_MOTION_DOT>.1513E-4</MEAN_MOTION_DOT><MEAN_MOTION_DDOT>0</MEAN_MOTION_DDOT></tleParameters></data></segment></body></omm>
<omm id="CCSDS_OMM_VERS" version="2.0">
<header><CREATION_DATE/><ORIGINATOR/></header><body><segment><metadata><OBJECT_NAME>ORBCOMM FM113</OBJECT_NAME><OBJECT_ID>2015-081G</OBJECT_ID><CENTER_NAME>EARTH</CENTER_NAME><REF_FRAME>TEME</REF_FRAME><TIME_SYSTEM>UTC</TIME_SYSTEM><MEAN_ELEMENT_THEORY>SGP4</MEAN_ELEMENT_THEORY></metadata><data><meanElements><EPOCH>2025-04-24T21:46:43.756896</EPOCH><MEAN_MOTION>14.58046326</MEAN_MOTION><ECCENTRICITY>.0000494</ECCENTRICITY><INCLINATION>47.0002</INCLINATION><RA_OF_ASC_NODE>87.2562</RA_OF_ASC_NODE><ARG_OF_PERICENTER>192.0531</ARG_OF_PERICENTER><MEAN_ANOMALY>168.0343</MEAN_ANOMALY></meanElements><tleParameters><EPHEMERIS_TYPE>0</EPHEMERIS_TYPE><CLASSIFICATION_TYPE>U</CLASSIFICATION_TYPE><NORAD_CAT_ID>41185</NORAD_CAT_ID><ELEMENT_SET_NO>999</ELEMENT_SET_NO><REV_AT_EPOCH>49787</REV_AT_EPOCH><BSTAR>.43336E-3</BSTAR><MEAN_MOTION_DOT>.1843E-4</MEAN_MOTION_DOT><MEAN_MOTION_DDOT>0</MEAN_MOTION_DDOT></tleParameters></data></segment></body></omm>

</ndm>
