ORBCOMM FM103           
1 40091U 14040F   25114.87683759  .00001544  00000+0  36867-3 0  9995
2 40091  47.0056 269.5537 0001296  19.3496 340.7438 14.58077710573380
ORBCOMM FM114           
1 41179U 15081A   25114.55732414  .00001152  00000+0  28422-3 0  9990
2 41179  47.0013 180.1384 0001074 122.7687 237.3302 14.58132271496642
ORBCOMM FM110           
1 41182U 15081D   25114.53487890  .00001543  00000+0  36921-3 0  9994
2 41182  47.0008 179.6314 0002958 275.8519  84.2029 14.58001271496697
ORBCOMM FM118           
1 41183U 15081E   25112.66893234  .00001513  00000+0  36211-3 0  9999
2 41183  47.0037 188.8961 0003525 249.1284 110.9224 14.58093838496340
ORBCOMM FM113           
1 41185U 15081G   25114.90745089  .00001843  00000+0  43336-3 0  9996
2 41185  47.0002  87.2562 0000494 192.0531 168.0343 14.58046326497871
